QIANFAN-9               
1 60387U 24140J   25304.24548917  .00000066  00000+0  83170-4 0  9993
2 60387  88.9735 303.7421 0015146 326.9195  33.1007 13.50975176 61597
QIANFAN-10              
1 60388U 24140K   25304.24968007  .00000068  00000+0  86638-4 0  9994
2 60388  88.9743 303.0846 0013009 302.6842  57.3054 13.50976314 61727
QIANFAN-11              
1 60389U 24140L   25304.21260279  .00000064  00000+0  80690-4 0  9996
2 60389  88.9670 303.7076 0013188 327.6639  32.3703 13.50972406 61371
QIANFAN-12              
1 60390U 24140M   25304.23312429  .00000052  00000+0  61963-4 0  9994
2 60390  88.9713 303.7303 0012289 337.1173  22.9429 13.50972841 61502
QIANFAN-13              
1 60391U 24140N   25304.27840192  .00000060  00000+0  75086-4 0  9992
2 60391  88.9726 303.8202 0012203 339.9017  20.1652 13.50973164 61539
QIANFAN-14              
1 60392U 24140P   25304.30298992  .00000051  00000+0  60298-4 0  9991
2 60392  88.9705 303.7243 0015851 337.7115  22.3345 13.50973311 61546
QIANFAN-15              
1 60393U 24140Q   25304.31122122  .00000058  00000+0  71051-4 0  9990
2 60393  88.9728 303.6699 0011226 325.3287  34.7131 13.50971397 61532
QIANFAN-16              
1 60394U 24140R   25304.29904611  .00000056  00000+0  67915-4 0  9991
2 60394  88.9732 303.7900 0013938 342.8186  17.2491 13.50972292 61448
